NUSAT-48 (HENRIETTA LE*)
1 60498U 24149AG  26068.80506098  .00012988  00000+0  45212-3 0  9999
2 60498  97.3923 150.8264 0002754 263.3026  96.7901 15.29812597 86946
STARLINK-35466          
1 66457U 25262B   26068.03297421  .00033208  00000+0  12113-2 0  9990
2 66457  43.0029 300.0829 0001327 249.8774 110.1935 15.27567876 18805
